[{"OBJECT_NAME":"PROPCUBE 1 (FLORA)","OBJECT_ID":"2015-058N","EPOCH":"2026-03-09T22:10:52.593312","MEAN_MOTION":14.88641208,"ECCENTRICITY":0.01301152,"INCLINATION":64.774,"RA_OF_ASC_NODE":242.7389,"ARG_OF_PERICENTER":100.0601,"MEAN_ANOMALY":261.522,"EPHEMERIS_TYPE":0,"CLASSIFICATION_TYPE":"U","NORAD_CAT_ID":40976,"ELEMENT_SET_NO":999,"REV_AT_EPOCH":10148,"BSTAR":0.00044491072,"MEAN_MOTION_DOT":4.703e-5,"MEAN_MOTION_DDOT":0},{"OBJECT_NAME":"STARLINK-5766","OBJECT_ID":"2023-042AR","EPOCH":"2026-03-09T06:47:42.926208","MEAN_MOTION":15.03167581,"ECCENTRICITY":0.00023892,"INCLINATION":42.9974,"RA_OF_ASC_NODE":45.7717,"ARG_OF_PERICENTER":188.7608,"MEAN_ANOMALY":171.3193,"EPHEMERIS_TYPE":0,"CLASSIFICATION_TYPE":"U","NORAD_CAT_ID":56025,"ELEMENT_SET_NO":999,"REV_AT_EPOCH":16299,"BSTAR":0.005261799,"MEAN_MOTION_DOT":0.00072833,"MEAN_MOTION_DDOT":0}]
